0 FENGYUN 1C DEB
1 31333U 99025BQM 13283.91743030  .00000652  00000-0  32850-3 0  3855
2 31333 098.9098 329.1539 0110038 263.2471 095.6465 14.16782956335968
0 FENGYUN 1C DEB
1 31333U 99025BQM 13287.37789327  .00000685  00000-0  34378-3 0  3862
2 31333 098.9085 332.6151 0110947 253.3676 105.5386 14.16789102336457
0 FENGYUN 1C DEB
1 31333U 99025BQM 13289.35529868  .00000730  00000-0  36441-3 0  3879
2 31333 098.9068 334.5956 0111810 247.7937 111.1645 14.16793647336730
0 FENGYUN 1C DEB
1 31333U 99025BQM 13290.34399616  .00000756  00000-0  37688-3 0  3889
2 31333 098.9089 335.5885 0111905 244.2486 114.7383 14.16796018336879
0 FENGYUN 1C DEB
1 31333U 99025BQM 13292.95698545  .00000793  00000-0  39457-3 0  3899
2 31333 098.9090 338.2075 0111081 237.0072 122.0341 14.16801233337242
0 FENGYUN 1C DEB
1 31333U 99025BQM 13295.35811387  .00000821  00000-0  40777-3 0  3908
2 31333 098.9100 340.6177 0110385 229.3549 129.8174 14.16806082337586
0 FENGYUN 1C DEB
1 31333U 99025BQM 13295.92308053  .00000846  00000-0  41964-3 0  3919
2 31333 098.9123 341.1913 0110174 226.9792 132.2459 14.16808033337665
